NORAD_CAT_ID,OBJECT_NAME,OBJECT_TYPE,EPOCH,MEAN_MOTION,ECCENTRICITY,INCLINATION,RA_OF_ASC_NODE,ARG_OF_PERICENTER,MEAN_ANOMALY,BSTAR,MEAN_MOTION_DOT,MEAN_MOTION_DDOT,TLE_LINE0,TLE_LINE1,TLE_LINE2,SEMIMAJOR_AXIS,PERIOD,APOGEE,PERIGEE,DECAYED
51791.0,STARLINK-3602,PAYLOAD,2023-04-22 03:56:56,15.08872685,0.0001026,53.2173,34.0875,105.9884,254.1221,0.0014491,0.0002287,0.0,0 STARLINK-3602,1 51791U 22017Z   23112.16454793  .00022870  00000-0  14491-2 0  9993,2 51791  53.2173  34.0875 0001026 105.9884 254.1221 15.08872685 65027,6917.78,95.435,540.355,538.936,0.0
51791.0,STARLINK-3602,PAYLOAD,2023-04-22 18:15:25,15.08864259,0.0001438,53.2165,31.4135,79.5459,280.5695,0.00078961,0.00012309,0.0,0 STARLINK-3602,1 51791U 22017Z   23112.76070756  .00012309  00000-0  78961-3 0  9991,2 51791  53.2165  31.4135 0001438  79.5459 280.5695 15.08864259 65115,6917.806,95.436,540.666,538.676,0.0
51791.0,STARLINK-3602,PAYLOAD,2023-04-23 03:47:43,15.08865424,9.99e-05,53.2169,29.6257,74.806,285.3042,0.0014248,0.00022476,0.0,0 STARLINK-3602,1 51791U 22017Z   23113.15814467  .00022476  00000-0  14248-2 0  9993,2 51791  53.2169  29.6257 0000999  74.8060 285.3042 15.08865424 65170,6917.803,95.436,540.359,538.977,0.0
51791.0,STARLINK-3602,PAYLOAD,2023-04-23 18:06:12,15.08852829,0.0001364,53.2173,26.9527,78.4203,281.6942,0.0013018,0.00020498,0.0,0 STARLINK-3602,1 51791U 22017Z   23113.75430898  .00020498  00000-0  13018-2 0  9997,2 51791  53.2173  26.9527 0001364  78.4203 281.6942 15.08852829 65264,6917.841,95.437,540.65,538.763,0.0
51791.0,STARLINK-3602,PAYLOAD,2023-04-24 03:38:30,15.08910499,0.0001152,53.2174,25.1682,84.931,275.1813,0.0058208,0.00093765,0.0,0 STARLINK-3602,1 51791U 22017Z   23114.15174495  .00093765  00000-0  58208-2 0  9997,2 51791  53.2174  25.1682 0001152  84.9310 275.1813 15.08910499 65324,6917.665,95.433,540.327,538.733,0.0
51791.0,STARLINK-3602,PAYLOAD,2023-04-25 05:04:38,15.08904168,0.0001351,53.2178,20.4072,114.8566,245.2567,0.0013084,0.00020633,0.0,0 STARLINK-3602,1 51791U 22017Z   23115.21155278  .00020633  00000-0  13084-2 0  9990,2 51791  53.2178  20.4072 0001351 114.8566 245.2567 15.08904168 65483,6917.684,95.433,540.484,538.615,0.0
51791.0,STARLINK-3602,PAYLOAD,2023-04-26 00:09:18,15.08788477,0.000165,53.2182,16.8375,102.8143,257.3033,0.00033132,4.982e-05,0.0,0 STARLINK-3602,1 51791U 22017Z   23116.00646244  .00004982  00000-0  33132-3 0  9992,2 51791  53.2182  16.8375 0001650 102.8143 257.3033 15.08788477 65602,6918.038,95.441,541.044,538.761,0.0
51791.0,STARLINK-3602,PAYLOAD,2023-04-26 04:55:28,15.08796108,0.0001244,53.2184,15.95,107.0432,253.0697,-0.00040763,-6.761e-05,0.0,0 STARLINK-3602,1 51791U 22017Z   23116.20518749 -.00006761  00000-0 -40763-3 0  9999,2 51791  53.2184  15.9500 0001244 107.0432 253.0697 15.08796108 65633,6918.015,95.44,540.74,539.019,0.0
51791.0,STARLINK-3602,PAYLOAD,2023-04-26 20:49:20,15.08813851,0.0001078,53.217,12.9754,108.457,251.6539,0.00058456,9.021e-05,0.0,0 STARLINK-3602,1 51791U 22017Z   23116.86760304  .00009021  00000-0  58456-3 0  9995,2 51791  53.2170  12.9754 0001078 108.4570 251.6539 15.08813851 65734,6917.96,95.439,540.571,539.08,0.0
51791.0,STARLINK-3602,PAYLOAD,2023-04-27 03:10:53,15.08827093,0.0001054,53.217,11.7858,110.3115,249.799,0.0011277,0.00017699,0.0,0 STARLINK-3602,1 51791U 22017Z   23117.13256711  .00017699  00000-0  11277-2 0  9997,2 51791  53.2170  11.7858 0001054 110.3115 249.7990 15.08827093 65773,6917.92,95.438,540.514,539.056,0.0
51791.0,STARLINK-3602,PAYLOAD,2023-04-28 01:26:17,15.08872588,9.85e-05,53.2173,7.6231,109.8981,250.2117,0.0015261,0.00024105,0.0,0 STARLINK-3602,1 51791U 22017Z   23118.05991973  .00024105  00000-0  15261-2 0  9992,2 51791  53.2173   7.6231 0000985 109.8981 250.2117 15.08872588 65914,6917.781,95.435,540.327,538.964,0.0
51791.0,STARLINK-3602,PAYLOAD,2023-04-28 09:23:12,15.08861519,0.0001406,53.2169,6.1363,89.54,270.5753,0.00082093,0.00012809,0.0,0 STARLINK-3602,1 51791U 22017Z   23118.39111993  .00012809  00000-0  82093-3 0  9991,2 51791  53.2169   6.1363 0001406  89.5400 270.5753 15.08861519 65966,6917.815,95.436,540.652,538.707,0.0
51791.0,STARLINK-3602,PAYLOAD,2023-04-28 18:55:31,15.0884658,0.0001108,53.2169,4.352,94.1511,265.9608,0.00070367,0.00010931,0.0,0 STARLINK-3602,1 51791U 22017Z   23118.78855957  .00010931  00000-0  70367-3 0  9994,2 51791  53.2169   4.3520 0001108  94.1511 265.9608 15.08846580 66021,6917.86,95.437,540.492,538.959,0.0
51791.0,STARLINK-3602,PAYLOAD,2023-04-29 01:17:03,15.08850283,9.46e-05,53.2171,3.1628,94.8398,265.2703,0.0012511,0.00019685,0.0,0 STARLINK-3602,1 51791U 22017Z   23119.05351779  .00019685  00000-0  12511-2 0  9999,2 51791  53.2171   3.1628 0000946  94.8398 265.2703 15.08850283 66067,6917.849,95.437,540.368,539.06,0.0
51791.0,STARLINK-3602,PAYLOAD,2023-04-29 15:35:32,15.088532,0.0001292,53.2176,0.4874,119.044,241.0682,0.0011109,0.00017443,0.0,0 STARLINK-3602,1 51791U 22017Z   23119.64967764  .00017443  00000-0  11109-2 0  9993,2 51791  53.2176   0.4874 0001292 119.0440 241.0682 15.08853200 66158,6917.84,95.437,540.599,538.811,0.0
51791.0,STARLINK-3602,PAYLOAD,2023-04-30 02:43:13,15.08856568,9.87e-05,53.2166,358.4054,86.3358,273.7747,0.00076993,0.00011992,0.0,0 STARLINK-3602,1 51791U 22017Z   23120.11335512  .00011992  00000-0  76993-3 0  9993,2 51791  53.2166 358.4054 0000987  86.3358 273.7747 15.08856568 66229,6917.83,95.437,540.378,539.012,0.0
51791.0,STARLINK-3602,PAYLOAD,2023-04-30 21:47:52,15.08838835,0.0001068,53.2181,354.8332,106.3225,253.7885,0.00021376,3.116e-05,0.0,0 STARLINK-3602,1 51791U 22017Z   23120.90824120  .00003116  00000-0  21376-3 0  9992,2 51791  53.2181 354.8332 0001068 106.3225 253.7885 15.08838835 66343,6917.884,95.438,540.488,539.01,0.0
51791.0,STARLINK-3602,PAYLOAD,2023-04-30 23:23:15,15.08838426,0.0001,53.218,354.536,107.2863,252.8239,0.00021267,3.098e-05,0.0,0 STARLINK-3602,1 51791U 22017Z   23120.97448139  .00003098  00000-0  21267-3 0  9999,2 51791  53.2180 354.5360 0001000 107.2863 252.8239 15.08838426 66354,6917.885,95.438,540.442,539.058,0.0
51791.0,STARLINK-3602,PAYLOAD,2023-05-01 21:38:39,15.08851587,9.24e-05,53.2168,350.3756,98.3864,261.7233,0.00061452,9.509e-05,0.0,0 STARLINK-3602,1 51791U 22017Z   23121.90184051  .00009509  00000-0  61452-3 0  9996,2 51791  53.2168 350.3756 0000924  98.3864 261.7233 15.08851587 66499,6917.845,95.437,540.349,539.071,0.0
51791.0,STARLINK-3602,PAYLOAD,2023-05-02 21:29:25,15.08848877,0.0001011,53.2166,345.9166,98.5699,261.5408,0.00033461,5.043e-05,0.0,0 STARLINK-3602,1 51791U 22017Z   23122.89543550  .00005043  00000-0  33461-3 0  9996,2 51791  53.2166 345.9166 0001011  98.5699 261.5408 15.08848877 66645,6917.853,95.437,540.418,539.019,0.0
51791.0,STARLINK-3602,PAYLOAD,2023-05-03 00:40:11,15.08853707,0.0001013,53.2168,345.3216,83.2594,276.8513,0.00031598,4.746e-05,0.0,0 STARLINK-3602,1 51791U 22017Z   23123.02791607  .00004746  00000-0  31598-3 0  9998,2 51791  53.2168 345.3216 0001013  83.2594 276.8513 15.08853707 66660,6917.838,95.437,540.404,539.003,0.0
51791.0,STARLINK-3602,PAYLOAD,2023-05-03 19:44:49,15.08840536,0.000123,53.2175,341.7504,86.5947,273.5186,-9.2478e-05,-1.759e-05,0.0,0 STARLINK-3602,1 51791U 22017Z   23123.82279968 -.00001759  00000-0 -92478-4 0  9995,2 51791  53.2175 341.7504 0001230  86.5947 273.5186 15.08840536 66786,6917.879,95.438,540.595,538.893,0.0
51791.0,STARLINK-3602,PAYLOAD,2023-05-03 21:20:12,15.08843033,0.0001182,53.2181,341.4526,83.1947,276.9179,-2.9834e-05,-7.63e-06,0.0,0 STARLINK-3602,1 51791U 22017Z   23123.88903861 -.00000763  00000-0 -29834-4 0  9997,2 51791  53.2181 341.4526 0001182  83.1947 276.9179 15.08843033 66798,6917.871,95.437,540.554,538.918,0.0
51791.0,STARLINK-3602,PAYLOAD,2023-05-04 06:52:31,15.08840477,0.0001254,53.2177,339.6689,86.6018,273.5117,2.6014e-05,1.26e-06,0.0,0 STARLINK-3602,1 51791U 22017Z   23124.28648051  .00000126  00000-0  26014-4 0  9997,2 51791  53.2177 339.6689 0001254  86.6018 273.5117 15.08840477 66850,6917.879,95.438,540.611,538.876,0.0
51791.0,STARLINK-3602,PAYLOAD,2023-05-04 21:10:59,15.08842831,0.000111,53.2168,336.996,90.7665,269.3454,2.4762e-05,1.06e-06,0.0,0 STARLINK-3602,1 51791U 22017Z   23124.88263869  .00000106  00000-0  24762-4 0  9999,2 51791  53.2168 336.9960 0001110  90.7665 269.3454 15.08842831 66940,6917.872,95.437,540.505,538.969,0.0
51791.0,STARLINK-3602,PAYLOAD,2023-05-04 22:46:23,15.0884384,0.0001131,53.2169,336.6984,91.2547,268.8575,4.696e-05,4.6e-06,0.0,0 STARLINK-3602,1 51791U 22017Z   23124.94887822  .00000460  00000-0  46960-4 0  9994,2 51791  53.2169 336.6984 0001131  91.2547 268.8575 15.08843840 66952,6917.869,95.437,540.516,538.951,0.0
51791.0,STARLINK-3602,PAYLOAD,2023-05-05 14:40:15,15.0883432,0.0001163,53.2165,333.7252,95.2662,264.8463,0.0001609,2.273e-05,0.0,0 STARLINK-3602,1 51791U 22017Z   23125.61128490  .00002273  00000-0  16090-3 0  9992,2 51791  53.2165 333.7252 0001163  95.2662 264.8463 15.08834320 67058,6917.898,95.438,540.567,538.958,0.0
51791.0,STARLINK-3602,PAYLOAD,2023-05-05 21:01:47,15.08846649,0.000112,53.2163,332.5362,98.3125,261.7995,2.9095e-05,1.75e-06,0.0,0 STARLINK-3602,1 51791U 22017Z   23125.87623889  .00000175  00000-0  29095-4 0  9991,2 51791  53.2163 332.5362 0001120  98.3125 261.7995 15.08846649 67093,6917.86,95.437,540.5,538.95,0.0
51791.0,STARLINK-3602,PAYLOAD,2023-05-05 22:37:10,15.08845044,0.0001153,53.2166,332.2383,94.0985,266.0139,0.00017429,2.487e-05,0.0,0 STARLINK-3602,1 51791U 22017Z   23125.94248008  .00002487  00000-0  17429-3 0  9990,2 51791  53.2166 332.2383 0001153  94.0985 266.0139 15.08845044 67107,6917.865,95.437,540.528,538.932,0.0
51791.0,STARLINK-3602,PAYLOAD,2023-05-06 20:52:34,15.08842491,0.0001154,53.2169,328.0749,102.5611,257.551,4.0537e-05,3.57e-06,0.0,0 STARLINK-3602,1 51791U 22017Z   23126.86984204  .00000357  00000-0  40537-4 0  9998,2 51791  53.2169 328.0749 0001154 102.5611 257.5510 15.08842491 67247,6917.873,95.437,540.536,538.939,0.0
